JY1SAT (JO-97)          
1 43803U 18099AX  26068.68634132  .00017774  00000+0  60804-3 0  9996
2 43803  97.4249 131.3625 0004723 256.6795 103.3919 15.30302628398390
STARLINK-35579          
1 66562U 25268F   26067.14576986  .00049041  00000+0  17784-2 0  9991
2 66562  43.0021 355.7805 0002172 277.4070  82.6535 15.27606511 17729
