[{"OBJECT_NAME":"JY1SAT (JO-97)","OBJECT_ID":"2018-099AX","EPOCH":"2026-03-09T16:28:19.890048","MEAN_MOTION":15.30302629,"ECCENTRICITY":0.00047232,"INCLINATION":97.4249,"RA_OF_ASC_NODE":131.3625,"ARG_OF_PERICENTER":256.6795,"MEAN_ANOMALY":103.3919,"EPHEMERIS_TYPE":0,"CLASSIFICATION_TYPE":"U","NORAD_CAT_ID":43803,"ELEMENT_SET_NO":999,"REV_AT_EPOCH":39839,"BSTAR":0.00060804308,"MEAN_MOTION_DOT":0.00017774,"MEAN_MOTION_DDOT":0},{"OBJECT_NAME":"STARLINK-35579","OBJECT_ID":"2025-268F","EPOCH":"2026-03-08T03:29:54.515904","MEAN_MOTION":15.27606511,"ECCENTRICITY":0.00021729,"INCLINATION":43.0021,"RA_OF_ASC_NODE":355.7805,"ARG_OF_PERICENTER":277.407,"MEAN_ANOMALY":82.6535,"EPHEMERIS_TYPE":0,"CLASSIFICATION_TYPE":"U","NORAD_CAT_ID":66562,"ELEMENT_SET_NO":999,"REV_AT_EPOCH":1772,"BSTAR":0.0017783536,"MEAN_MOTION_DOT":0.00049041,"MEAN_MOTION_DDOT":0}]
